BEIDOU-2 IGSO-1 (C06)   
1 36828U 10036A   23089.67029189 -.00000152  00000+0  00000+0 0  9998
2 36828  54.2080 173.6151 0035451 188.9218 174.9449  1.00268422 46459
BEIDOU-2 G4 (C04)       
1 37210U 10057A   23089.82427547 -.00000119  00000+0  00000+0 0  9997
2 37210   0.8608  48.8324 0001343 212.5140  23.2614  1.00270675 45502
BEIDOU-2 IGSO-2 (C07)   
1 37256U 10068A   23089.46906045 -.00000167  00000+0  00000+0 0  9997
2 37256  49.6953 286.2101 0023612 201.8736 337.1101  1.00277123 45011
BEIDOU-2 IGSO-3 (C08)   
1 37384U 11013A   23089.82700998 -.00000161  00000+0  00000+0 0  9993
2 37384  60.7134  51.4302 0023087 188.1851 353.3936  1.00278770 43893
BEIDOU-2 IGSO-4 (C09)   
1 37763U 11038A   23089.05817458 -.00000125  00000+0  00000+0 0  9996
2 37763  54.4856 176.1382 0107200 228.4609 258.2208  1.00264157 42862
BEIDOU-2 IGSO-5 (C10)   
1 37948U 11073A   23089.17036198 -.00000120  00000+0  00000+0 0  9992
2 37948  49.8167 285.8734 0085385 219.2887 199.5326  1.00268693 41624
BEIDOU-2 G5 (C05)       
1 38091U 12008A   23089.94749106  .00000052  00000+0  00000+0 0  9999
2 38091   1.3521  63.8693 0025405 318.5410 205.3686  1.00273641 40703
BEIDOU-2 M3 (C11)       
1 38250U 12018A   23089.60208068 -.00000101  00000+0  00000+0 0  9993
2 38250  56.5890 344.0973 0022160 263.5989 276.4489  1.86231202 74417
BEIDOU-2 M4 (C12)       
1 38251U 12018B   23089.61807661 -.00000100  00000+0  00000+0 0  9998
2 38251  56.5014 343.4014 0012920 269.8108 325.8358  1.86234233 74411
BEIDOU-2 M6 (C14)       
1 38775U 12050B   23089.24840913  .00000027  00000+0  00000+0 0  9998
2 38775  55.5811 102.0722 0014501 321.8945 220.8612  1.86231207 71788
BEIDOU-2 G6 (C02)       
1 38953U 12059A   23089.88089716 -.00000181  00000+0  00000+0 0  9993
2 38953   1.6366  82.3925 0011419 303.8745 202.8783  1.00270470 38133
BEIDOU-3S IGSO-1S (C31) 
1 40549U 15019A   23089.29998685 -.00000146  00000+0  00000+0 0  9996
2 40549  51.3820 309.4183 0036135 192.2634 248.3590  1.00292041 29300
BEIDOU-3S M2S (C57)     
1 40748U 15037A   23089.66846142 -.00000099  00000+0  00000+0 0  9995
2 40748  55.7465 342.0911 0005482  13.4959 164.9613  1.86233248 52247
BEIDOU-3S M1S (C58)     
1 40749U 15037B   23089.54327221 -.00000100  00000+0  00000+0 0  9998
2 40749  55.7498 342.0856 0006381 341.7539 246.7336  1.86232943 52233
BEIDOU-3S IGSO-2S (C56) 
1 40938U 15053A   23089.06017343 -.00000102  00000+0  00000+0 0  9996
2 40938  51.0559 272.5713 0044986 191.9058 200.8931  1.00273928 27578
BEIDOU-2 IGSO-6 (C13)   
1 41434U 16021A   23089.35535457 -.00000140  00000+0  00000+0 0  9999
2 41434  58.5229  49.8815 0048231 226.2975 135.2241  1.00269958 25707
BEIDOU-2 G7 (C03)       
1 41586U 16037A   23089.90973994 -.00000360  00000+0  00000+0 0  9991
2 41586   1.5125  65.0275 0009392 345.5037 215.5189  1.00275408 25011
BEIDOU-3 M1 (C19)       
1 43001U 17069A   23089.36284786  .00000029  00000+0  00000+0 0  9996
2 43001  55.7325 102.1057 0012317 291.7769 124.1926  1.86231526 36725
BEIDOU-3 M2 (C20)       
1 43002U 17069B   23089.46671547  .00000031  00000+0  00000+0 0  9996
2 43002  55.7325 102.1382 0009777 309.2180 219.0884  1.86231237 36710
BEIDOU-3 M7 (C27)       
1 43107U 18003A   23089.25350544 -.00000103  00000+0  00000+0 0  9990
2 43107  55.2009 342.8963 0005203  48.6940 143.2963  1.86232338 35477
BEIDOU-3 M8 (C28)       
1 43108U 18003B   23089.74604536 -.00000100  00000+0  00000+0 0  9995
2 43108  55.1941 342.8668 0003125 280.4980 284.0085  1.86230841 35482
BEIDOU-3 M4 (C22)       
1 43207U 18018A   23089.34720539  .00000029  00000+0  00000+0 0  9998
2 43207  55.6919 102.2104 0006635 325.0910  34.9082  1.86231434 34862
BEIDOU-3 M3 (C21)       
1 43208U 18018B   23087.26597072  .00000004  00000+0  00000+0 0  9995
2 43208  55.6901 102.2848 0009895 299.5360  60.4033  1.86231554 34823
BEIDOU-3 M9 (C29)       
1 43245U 18029A   23089.63243803 -.00000098  00000+0  00000+0 0  9995
2 43245  55.1019 340.6305 0001420 358.0259 358.6757  1.86232466 34018
BEIDOU-3 M10 (C30)      
1 43246U 18029B   23089.32156619 -.00000100  00000+0  10000-3 0  9999
2 43246  55.0994 340.6701 0005252   2.6353 192.4023  1.86232654 34002
BEIDOU-2 IGSO-7 (C16)   
1 43539U 18057A   23089.58862189 -.00000156  00000+0  00000+0 0  9995
2 43539  55.1018 173.2164 0058281 229.1518 109.7048  1.00279025 17375
BEIDOU-3 M5 (C23)       
1 43581U 18062A   23089.19818656 -.00000013  00000+0  00000+0 0  9997
2 43581  54.2065 222.3103 0001663 301.1410  22.9987  1.86231845 31744
BEIDOU-3 M6 (C24)       
1 43582U 18062B   23089.64409075 -.00000017  00000+0  00000+0 0  9993
2 43582  54.2061 222.2840 0006085  32.7094 321.6734  1.86229458 31753
BEIDOU-3 M12 (C26)      
1 43602U 18067A   23089.59765819 -.00000018  00000+0  00000+0 0  9997
2 43602  54.2924 220.9266 0007520  22.8406 341.9657  1.86231635 31257
BEIDOU-3 M11 (C25)      
1 43603U 18067B   23089.69564025 -.00000019  00000+0  00000+0 0  9996
2 43603  54.2892 220.8892 0004391  17.9423 322.8649  1.86231511 31266
BEIDOU-3 M13 (C32)      
1 43622U 18072A   23089.67896520  .00000033  00000+0  00000+0 0  9994
2 43622  55.6612 101.7444 0008825 287.7631  70.1377  1.86231409 30778
BEIDOU-3 M14 (C33)      
1 43623U 18072B   23089.16393372  .00000026  00000+0  00000+0 0  9998
2 43623  55.6618 101.7538 0006418 304.4273 158.4088  1.86231416 30771
BEIDOU-3 M16 (C35)      
1 43647U 18078A   23089.28253663 -.00000100  00000+0  10000-3 0  9990
2 43647  54.9979 340.7778 0008651   8.5382  67.5950  1.86227057 30284
BEIDOU-3 M15 (C34)      
1 43648U 18078B   23089.88518394 -.00000097  00000+0  00000+0 0  9992
2 43648  54.9936 340.7622 0005666  16.7232  13.0671  1.86232074 30319
BEIDOU-3 G1 (C59)       
1 43683U 18085A   23089.89205426 -.00000285  00000+0  00000+0 0  9998
2 43683   1.1931 137.3512 0001832  25.9244 125.8902  1.00269708 16280
BEIDOU-3 M17 (C36)      
1 43706U 18093A   23088.91607267 -.00000010  00000+0  00000+0 0  9990
2 43706  54.2893 222.2258 0007524 279.7989  80.0815  1.86232063 29650
BEIDOU-3 M18 (C37)      
1 43707U 18093B   23089.30466163 -.00000014  00000+0  00000+0 0  9997
2 43707  54.2888 222.2032 0006094 320.1647  31.4141  1.86229649 29645
BEIDOU-3 IGSO-1 (C38)   
1 44204U 19023A   23088.82340781 -.00000199  00000+0  00000+0 0  9991
2 44204  56.9869  49.9181 0019959 209.0555 344.0780  1.00276667 14578
BEIDOU-2 G8 (C01)       
1 44231U 19027A   23089.82122471 -.00000254  00000+0  00000+0 0  9992
2 44231   1.5644  80.9602 0004532 139.2233  47.9011  1.00269430 14291
BEIDOU-3 IGSO-2 (C39)   
1 44337U 19035A   23089.58342514 -.00000157  00000+0  00000+0 0  9995
2 44337  55.1395 169.1826 0030169 197.9705 150.1541  1.00270124 13919
BEIDOU-3 M24 (C46)      
1 44542U 19061A   23089.38996475 -.00000014  00000+0  00000+0 0  9993
2 44542  54.5159 222.4083 0007503 356.7499   3.2095  1.86231224 23912
BEIDOU-3 M23 (C45)      
1 44543U 19061B   23089.52479782 -.00000015  00000+0  00000+0 0  9998
2 44543  54.5148 222.3727 0004690 356.4839   5.5453  1.86231551 23910
BEIDOU-3 IGSO-3 (C40)   
1 44709U 19073A   23089.45785839 -.00000142  00000+0  00000+0 0  9991
2 44709  56.7942 293.4010 0029345 177.3176   1.1576  1.00275691 12669
BEIDOU-3 M22 (C44)      
1 44793U 19078A   23089.50257714 -.00000099  00000+0  10000-3 0  9997
2 44793  54.8468 340.7571 0007477  15.0270 164.4338  1.86232011 22772
BEIDOU-3 M21 (C43)      
1 44794U 19078B   23089.68117266 -.00000098  00000+0  00000+0 0  9998
2 44794  54.8202 340.7362 0005468   7.6315 203.7517  1.86232552 22778
BEIDOU-3 M19 (C41)      
1 44864U 19090A   23089.11380053  .00000026  00000+0  00000+0 0  9994
2 44864  55.5945 101.9587 0019390 274.2679 110.8339  1.86231764 22356
BEIDOU-3 M20 (C42)      
1 44865U 19090B   23087.59910759  .00000007  00000+0  00000+0 0  9996
2 44865  55.5957 102.0429 0017433 286.3165 253.0744  1.86231706 22296
BEIDOU-3 G2 (C60)       
1 45344U 20017A   23089.74701973 -.00000146  00000+0  00000+0 0  9990
2 45344   1.9938   7.6190 0001693  41.2356 127.9218  1.00270879 11483
BEIDOU-3 G3 (C61)       
1 45807U 20040A   23089.90973994 -.00000362  00000+0  00000+0 0  9992
2 45807   0.8394 319.6907 0006686 333.2178 333.1112  1.00277370 10291
